CCSDS_OMM_VERS = 2.0
CREATION_DATE  = 
ORIGINATOR     = 

OBJECT_NAME    = SL-16 R/B
OBJECT_ID      = 1998-045B
CENTER_NAME    = EARTH
REF_FRAME      = TEME
TIME_SYSTEM    = UTC
MEAN_ELEMENT_THEORY = SGP/SGP4

EPOCH          = 2026-04-03T12:09:29.625696
MEAN_MOTION    = 14.16193398
ECCENTRICITY   = .00082041
INCLINATION    = 71.0091
RA_OF_ASC_NODE = 129.3870
ARG_OF_PERICENTER = 331.4959
MEAN_ANOMALY   = 28.5714

EPHEMERIS_TYPE = 0
CLASSIFICATION_TYPE = U
NORAD_CAT_ID   = 25407
ELEMENT_SET_NO = 999
REV_AT_EPOCH   = 43061
BSTAR          = .46436855E-4
MEAN_MOTION_DOT = .44E-6
MEAN_MOTION_DDOT = 0

CCSDS_OMM_VERS = 2.0
CREATION_DATE  = 
ORIGINATOR     = 

OBJECT_NAME    = ISS (ZARYA)
OBJECT_ID      = 1998-067A
CENTER_NAME    = EARTH
REF_FRAME      = TEME
TIME_SYSTEM    = UTC
MEAN_ELEMENT_THEORY = SGP/SGP4

EPOCH          = 2026-04-03T21:00:58.615488
MEAN_MOTION    = 15.48754008
ECCENTRICITY   = .00062526
INCLINATION    = 51.6327
RA_OF_ASC_NODE = 307.8415
ARG_OF_PERICENTER = 268.9169
MEAN_ANOMALY   = 91.1103

EPHEMERIS_TYPE = 0
CLASSIFICATION_TYPE = U
NORAD_CAT_ID   = 25544
ELEMENT_SET_NO = 999
REV_AT_EPOCH   = 56023
BSTAR          = .23534024E-3
MEAN_MOTION_DOT = .12431E-3
MEAN_MOTION_DDOT = 0

CCSDS_OMM_VERS = 2.0
CREATION_DATE  = 
ORIGINATOR     = 

OBJECT_NAME    = CZ-4B R/B
OBJECT_ID      = 1999-025C
CENTER_NAME    = EARTH
REF_FRAME      = TEME
TIME_SYSTEM    = UTC
MEAN_ELEMENT_THEORY = SGP/SGP4

EPOCH          = 2026-04-03T17:16:09.729120
MEAN_MOTION    = 14.18270621
ECCENTRICITY   = .00359699
INCLINATION    = 98.6573
RA_OF_ASC_NODE = 137.4023
ARG_OF_PERICENTER = 272.9155
MEAN_ANOMALY   = 196.5347

EPHEMERIS_TYPE = 0
CLASSIFICATION_TYPE = U
NORAD_CAT_ID   = 25732
ELEMENT_SET_NO = 999
REV_AT_EPOCH   = 39171
BSTAR          = .65484844E-4
MEAN_MOTION_DOT = .92E-6
MEAN_MOTION_DDOT = 0

CCSDS_OMM_VERS = 2.0
CREATION_DATE  = 
ORIGINATOR     = 

OBJECT_NAME    = OKEAN-O
OBJECT_ID      = 1999-039A
CENTER_NAME    = EARTH
REF_FRAME      = TEME
TIME_SYSTEM    = UTC
MEAN_ELEMENT_THEORY = SGP/SGP4

EPOCH          = 2026-04-03T17:29:26.439072
MEAN_MOTION    = 14.80378901
ECCENTRICITY   = .00009233
INCLINATION    = 97.9390
RA_OF_ASC_NODE = 153.3592
ARG_OF_PERICENTER = 102.3809
MEAN_ANOMALY   = 257.7506

EPHEMERIS_TYPE = 0
CLASSIFICATION_TYPE = U
NORAD_CAT_ID   = 25860
ELEMENT_SET_NO = 999
REV_AT_EPOCH   = 43809
BSTAR          = .16252339E-3
MEAN_MOTION_DOT = .1188E-4
MEAN_MOTION_DDOT = 0

CCSDS_OMM_VERS = 2.0
CREATION_DATE  = 
ORIGINATOR     = 

OBJECT_NAME    = SL-16 R/B
OBJECT_ID      = 1999-039B
CENTER_NAME    = EARTH
REF_FRAME      = TEME
TIME_SYSTEM    = UTC
MEAN_ELEMENT_THEORY = SGP/SGP4

EPOCH          = 2026-04-03T16:26:35.471328
MEAN_MOTION    = 14.81768642
ECCENTRICITY   = .00150112
INCLINATION    = 97.9913
RA_OF_ASC_NODE = 152.7378
ARG_OF_PERICENTER = 171.1642
MEAN_ANOMALY   = 188.9837

EPHEMERIS_TYPE = 0
CLASSIFICATION_TYPE = U
NORAD_CAT_ID   = 25861
ELEMENT_SET_NO = 999
REV_AT_EPOCH   = 44056
BSTAR          = .13818317E-3
MEAN_MOTION_DOT = .1038E-4
MEAN_MOTION_DDOT = 0

CCSDS_OMM_VERS = 2.0
CREATION_DATE  = 
ORIGINATOR     = 

OBJECT_NAME    = DELTA 2 R/B
OBJECT_ID      = 1999-041E
CENTER_NAME    = EARTH
REF_FRAME      = TEME
TIME_SYSTEM    = UTC
MEAN_ELEMENT_THEORY = SGP/SGP4

EPOCH          = 2026-04-03T17:08:07.920384
MEAN_MOTION    = 14.11897918
ECCENTRICITY   = .0502623
INCLINATION    = 51.7611
RA_OF_ASC_NODE = 201.3138
ARG_OF_PERICENTER = 62.2245
MEAN_ANOMALY   = 302.8713

EPHEMERIS_TYPE = 0
CLASSIFICATION_TYPE = U
NORAD_CAT_ID   = 25876
ELEMENT_SET_NO = 999
REV_AT_EPOCH   = 36656
BSTAR          = .22067E-3
MEAN_MOTION_DOT = .1128E-4
MEAN_MOTION_DDOT = 0

CCSDS_OMM_VERS = 2.0
CREATION_DATE  = 
ORIGINATOR     = 

OBJECT_NAME    = HELIOS 1B
OBJECT_ID      = 1999-064A
CENTER_NAME    = EARTH
REF_FRAME      = TEME
TIME_SYSTEM    = UTC
MEAN_ELEMENT_THEORY = SGP/SGP4

EPOCH          = 2026-04-03T17:35:59.568576
MEAN_MOTION    = 14.87802445
ECCENTRICITY   = .00015293
INCLINATION    = 98.1670
RA_OF_ASC_NODE = 356.7103
ARG_OF_PERICENTER = 44.4908
MEAN_ANOMALY   = 315.6430

EPHEMERIS_TYPE = 0
CLASSIFICATION_TYPE = U
NORAD_CAT_ID   = 25977
ELEMENT_SET_NO = 999
REV_AT_EPOCH   = 68898
BSTAR          = .3907377E-3
MEAN_MOTION_DOT = .3511E-4
MEAN_MOTION_DDOT = 0

CCSDS_OMM_VERS = 2.0
CREATION_DATE  = 
ORIGINATOR     = 

OBJECT_NAME    = TERRA
OBJECT_ID      = 1999-068A
CENTER_NAME    = EARTH
REF_FRAME      = TEME
TIME_SYSTEM    = UTC
MEAN_ELEMENT_THEORY = SGP/SGP4

EPOCH          = 2026-04-03T22:13:29.270208
MEAN_MOTION    = 14.61044036
ECCENTRICITY   = .00036658
INCLINATION    = 97.9540
RA_OF_ASC_NODE = 146.3900
ARG_OF_PERICENTER = 99.6627
MEAN_ANOMALY   = 3.4583

EPHEMERIS_TYPE = 0
CLASSIFICATION_TYPE = U
NORAD_CAT_ID   = 25994
ELEMENT_SET_NO = 999
REV_AT_EPOCH   = 39876
BSTAR          = .17353717E-3
MEAN_MOTION_DOT = .808E-5
MEAN_MOTION_DDOT = 0

CCSDS_OMM_VERS = 2.0
CREATION_DATE  = 
ORIGINATOR     = 

OBJECT_NAME    = SL-16 R/B
OBJECT_ID      = 2000-006B
CENTER_NAME    = EARTH
REF_FRAME      = TEME
TIME_SYSTEM    = UTC
MEAN_ELEMENT_THEORY = SGP/SGP4

EPOCH          = 2026-04-03T22:51:26.337024
MEAN_MOTION    = 14.15831016
ECCENTRICITY   = .00152591
INCLINATION    = 71.0038
RA_OF_ASC_NODE = 44.7147
ARG_OF_PERICENTER = 150.1819
MEAN_ANOMALY   = 210.0177

EPHEMERIS_TYPE = 0
CLASSIFICATION_TYPE = U
NORAD_CAT_ID   = 26070
ELEMENT_SET_NO = 999
REV_AT_EPOCH   = 35213
BSTAR          = .90925871E-4
MEAN_MOTION_DOT = .131E-5
MEAN_MOTION_DDOT = 0

CCSDS_OMM_VERS = 2.0
CREATION_DATE  = 
ORIGINATOR     = 

OBJECT_NAME    = TITAN 4B R/B
OBJECT_ID      = 2000-047B
CENTER_NAME    = EARTH
REF_FRAME      = TEME
TIME_SYSTEM    = UTC
MEAN_ELEMENT_THEORY = SGP/SGP4

EPOCH          = 2026-04-03T22:31:55.425216
MEAN_MOTION    = 15.09804761
ECCENTRICITY   = .00402755
INCLINATION    = 67.9903
RA_OF_ASC_NODE = 329.5012
ARG_OF_PERICENTER = 5.8094
MEAN_ANOMALY   = 354.3513

EPHEMERIS_TYPE = 0
CLASSIFICATION_TYPE = U
NORAD_CAT_ID   = 26474
ELEMENT_SET_NO = 999
REV_AT_EPOCH   = 39672
BSTAR          = .40836312E-3
MEAN_MOTION_DOT = .6612E-4
MEAN_MOTION_DDOT = 0

CCSDS_OMM_VERS = 2.0
CREATION_DATE  = 
ORIGINATOR     = 

OBJECT_NAME    = ENVISAT
OBJECT_ID      = 2002-009A
CENTER_NAME    = EARTH
REF_FRAME      = TEME
TIME_SYSTEM    = UTC
MEAN_ELEMENT_THEORY = SGP/SGP4

EPOCH          = 2026-04-03T20:11:16.548000
MEAN_MOTION    = 14.39046390
ECCENTRICITY   = .00011854
INCLINATION    = 98.3770
RA_OF_ASC_NODE = 46.8462
ARG_OF_PERICENTER = 82.1438
MEAN_ANOMALY   = 284.1270

EPHEMERIS_TYPE = 0
CLASSIFICATION_TYPE = U
NORAD_CAT_ID   = 27386
ELEMENT_SET_NO = 999
REV_AT_EPOCH   = 26279
BSTAR          = .85271062E-4
MEAN_MOTION_DOT = .221E-5
MEAN_MOTION_DDOT = 0

CCSDS_OMM_VERS = 2.0
CREATION_DATE  = 
ORIGINATOR     = 

OBJECT_NAME    = IDEFIX & ARIANE 42P R/B
OBJECT_ID      = 2002-021B
CENTER_NAME    = EARTH
REF_FRAME      = TEME
TIME_SYSTEM    = UTC
MEAN_ELEMENT_THEORY = SGP/SGP4

EPOCH          = 2026-04-03T19:21:41.907456
MEAN_MOTION    = 14.31044630
ECCENTRICITY   = .00128495
INCLINATION    = 98.5899
RA_OF_ASC_NODE = 32.1172
ARG_OF_PERICENTER = 111.1865
MEAN_ANOMALY   = 249.0692

EPHEMERIS_TYPE = 0
CLASSIFICATION_TYPE = U
NORAD_CAT_ID   = 27422
ELEMENT_SET_NO = 999
REV_AT_EPOCH   = 24761
BSTAR          = .20271821E-3
MEAN_MOTION_DOT = .491E-5
MEAN_MOTION_DDOT = 0

